STARLINK-35588          
1 66424U 25259C   25338.33335648 -.02064911  00000+0 -45658-1 0  9994
2 66424  43.0006  96.5172 0001344 277.5381 156.0570 15.46528477  4920
STARLINK-35555          
1 66425U 25259D   25338.33335648 -.02082588  00000+0 -43980-1 0  9991
2 66425  43.0004  96.5021 0001418 277.6249 161.4946 15.47868704  4926
STARLINK-35589          
1 66426U 25259E   25338.33335648 -.02059101  00000+0 -41452-1 0  9999
2 66426  43.0003  96.4939 0001341 278.5426 164.6968 15.49180701  4920
STARLINK-35611          
1 66427U 25259F   25338.33335648 -.02059883  00000+0 -39540-1 0  9992
2 66427  43.0004  96.4864 0001471 272.6990 173.2278 15.50512132  4923
STARLINK-35610          
1 66428U 25259G   25338.33335648 -.00784883  00000+0 -14420-1 0  9996
2 66428  43.0005  96.4815 0001285 276.1379 171.6823 15.50832355  4924
STARLINK-35533          
1 66429U 25259H   25338.33335648  .00006537  00000+0  11723-3 0  9993
2 66429  43.0003  96.4755 0001574 262.9612 186.8170 15.50558831  4927
STARLINK-35470          
1 66430U 25259J   25338.33335648 -.00063606  00000+0 -10869-2 0  9996
2 66430  43.0005  96.4722 0001598 253.1587 198.5353 15.50585041  4920
STARLINK-35439          
1 66431U 25259K   25338.33335648 -.00088226  00000+0 -15137-2 0  9995
2 66431  43.0006  96.4663 0001560 262.4993 191.1042 15.50602865  4927
STARLINK-35446          
1 66432U 25259L   25338.33335648 -.00200734  00000+0 -34883-2 0  9995
2 66432  43.0006  96.4607 0001425 291.8859 163.5404 15.50706241  4921
STARLINK-35457          
1 66433U 25259M   25338.33335648 -.00069699  00000+0 -11923-2 0  9999
2 66433  43.0005  96.4571 0001428 263.9710 193.4685 15.50590279  4925
STARLINK-35389          
1 66434U 25259N   25338.33335648 -.00062943  00000+0 -10757-2 0  9999
2 66434  43.0005  96.4522 0001370 263.6351 195.7336 15.50580366  4920
STARLINK-35502          
1 66435U 25259P   25338.33335648 -.00058919  00000+0 -10059-2 0  9993
2 66435  43.0006  96.4486 0001432 262.6641 198.6118 15.50583793  4928
