CCSDS_OMM_VERS = 2.0
CREATION_DATE  = 
ORIGINATOR     = 

OBJECT_NAME    = STARLINK-35588
OBJECT_ID      = 2025-259C
CENTER_NAME    = EARTH
REF_FRAME      = TEME
TIME_SYSTEM    = UTC
MEAN_ELEMENT_THEORY = SGP/SGP4

EPOCH          = 2025-12-04T08:00:01.999872
MEAN_MOTION    = 15.46528477
ECCENTRICITY   = .0001344
INCLINATION    = 43.0006
RA_OF_ASC_NODE = 96.5172
ARG_OF_PERICENTER = 277.5381
MEAN_ANOMALY   = 156.0570

EPHEMERIS_TYPE = 0
CLASSIFICATION_TYPE = U
NORAD_CAT_ID   = 66424
ELEMENT_SET_NO = 999
REV_AT_EPOCH   = 492
BSTAR          = -.4565792E-1
MEAN_MOTION_DOT = -.2064911E-1
MEAN_MOTION_DDOT = 0

CCSDS_OMM_VERS = 2.0
CREATION_DATE  = 
ORIGINATOR     = 

OBJECT_NAME    = STARLINK-35555
OBJECT_ID      = 2025-259D
CENTER_NAME    = EARTH
REF_FRAME      = TEME
TIME_SYSTEM    = UTC
MEAN_ELEMENT_THEORY = SGP/SGP4

EPOCH          = 2025-12-04T08:00:01.999872
MEAN_MOTION    = 15.47868704
ECCENTRICITY   = .0001418
INCLINATION    = 43.0004
RA_OF_ASC_NODE = 96.5021
ARG_OF_PERICENTER = 277.6249
MEAN_ANOMALY   = 161.4946

EPHEMERIS_TYPE = 0
CLASSIFICATION_TYPE = U
NORAD_CAT_ID   = 66425
ELEMENT_SET_NO = 999
REV_AT_EPOCH   = 492
BSTAR          = -.43979936E-1
MEAN_MOTION_DOT = -.2082588E-1
MEAN_MOTION_DDOT = 0

CCSDS_OMM_VERS = 2.0
CREATION_DATE  = 
ORIGINATOR     = 

OBJECT_NAME    = STARLINK-35589
OBJECT_ID      = 2025-259E
CENTER_NAME    = EARTH
REF_FRAME      = TEME
TIME_SYSTEM    = UTC
MEAN_ELEMENT_THEORY = SGP/SGP4

EPOCH          = 2025-12-04T08:00:01.999872
MEAN_MOTION    = 15.49180701
ECCENTRICITY   = .00013413
INCLINATION    = 43.0003
RA_OF_ASC_NODE = 96.4939
ARG_OF_PERICENTER = 278.5426
MEAN_ANOMALY   = 164.6968

EPHEMERIS_TYPE = 0
CLASSIFICATION_TYPE = U
NORAD_CAT_ID   = 66426
ELEMENT_SET_NO = 999
REV_AT_EPOCH   = 492
BSTAR          = -.41451949E-1
MEAN_MOTION_DOT = -.2059101E-1
MEAN_MOTION_DDOT = 0

CCSDS_OMM_VERS = 2.0
CREATION_DATE  = 
ORIGINATOR     = 

OBJECT_NAME    = STARLINK-35611
OBJECT_ID      = 2025-259F
CENTER_NAME    = EARTH
REF_FRAME      = TEME
TIME_SYSTEM    = UTC
MEAN_ELEMENT_THEORY = SGP/SGP4

EPOCH          = 2025-12-04T08:00:01.999872
MEAN_MOTION    = 15.50512132
ECCENTRICITY   = .00014717
INCLINATION    = 43.0004
RA_OF_ASC_NODE = 96.4864
ARG_OF_PERICENTER = 272.6990
MEAN_ANOMALY   = 173.2278

EPHEMERIS_TYPE = 0
CLASSIFICATION_TYPE = U
NORAD_CAT_ID   = 66427
ELEMENT_SET_NO = 999
REV_AT_EPOCH   = 492
BSTAR          = -.39539865E-1
MEAN_MOTION_DOT = -.2059883E-1
MEAN_MOTION_DDOT = 0

CCSDS_OMM_VERS = 2.0
CREATION_DATE  = 
ORIGINATOR     = 

OBJECT_NAME    = STARLINK-35610
OBJECT_ID      = 2025-259G
CENTER_NAME    = EARTH
REF_FRAME      = TEME
TIME_SYSTEM    = UTC
MEAN_ELEMENT_THEORY = SGP/SGP4

EPOCH          = 2025-12-04T08:00:01.999872
MEAN_MOTION    = 15.50832355
ECCENTRICITY   = .00012857
INCLINATION    = 43.0005
RA_OF_ASC_NODE = 96.4815
ARG_OF_PERICENTER = 276.1379
MEAN_ANOMALY   = 171.6823

EPHEMERIS_TYPE = 0
CLASSIFICATION_TYPE = U
NORAD_CAT_ID   = 66428
ELEMENT_SET_NO = 999
REV_AT_EPOCH   = 492
BSTAR          = -.14420163E-1
MEAN_MOTION_DOT = -.784883E-2
MEAN_MOTION_DDOT = 0

CCSDS_OMM_VERS = 2.0
CREATION_DATE  = 
ORIGINATOR     = 

OBJECT_NAME    = STARLINK-35533
OBJECT_ID      = 2025-259H
CENTER_NAME    = EARTH
REF_FRAME      = TEME
TIME_SYSTEM    = UTC
MEAN_ELEMENT_THEORY = SGP/SGP4

EPOCH          = 2025-12-04T08:00:01.999872
MEAN_MOTION    = 15.50558831
ECCENTRICITY   = .00015748
INCLINATION    = 43.0003
RA_OF_ASC_NODE = 96.4755
ARG_OF_PERICENTER = 262.9612
MEAN_ANOMALY   = 186.8170

EPHEMERIS_TYPE = 0
CLASSIFICATION_TYPE = U
NORAD_CAT_ID   = 66429
ELEMENT_SET_NO = 999
REV_AT_EPOCH   = 492
BSTAR          = .1172315E-3
MEAN_MOTION_DOT = .6537E-4
MEAN_MOTION_DDOT = 0

CCSDS_OMM_VERS = 2.0
CREATION_DATE  = 
ORIGINATOR     = 

OBJECT_NAME    = STARLINK-35470
OBJECT_ID      = 2025-259J
CENTER_NAME    = EARTH
REF_FRAME      = TEME
TIME_SYSTEM    = UTC
MEAN_ELEMENT_THEORY = SGP/SGP4

EPOCH          = 2025-12-04T08:00:01.999872
MEAN_MOTION    = 15.50585041
ECCENTRICITY   = .00015987
INCLINATION    = 43.0005
RA_OF_ASC_NODE = 96.4722
ARG_OF_PERICENTER = 253.1587
MEAN_ANOMALY   = 198.5353

EPHEMERIS_TYPE = 0
CLASSIFICATION_TYPE = U
NORAD_CAT_ID   = 66430
ELEMENT_SET_NO = 999
REV_AT_EPOCH   = 492
BSTAR          = -.10869418E-2
MEAN_MOTION_DOT = -.63606E-3
MEAN_MOTION_DDOT = 0

CCSDS_OMM_VERS = 2.0
CREATION_DATE  = 
ORIGINATOR     = 

OBJECT_NAME    = STARLINK-35439
OBJECT_ID      = 2025-259K
CENTER_NAME    = EARTH
REF_FRAME      = TEME
TIME_SYSTEM    = UTC
MEAN_ELEMENT_THEORY = SGP/SGP4

EPOCH          = 2025-12-04T08:00:01.999872
MEAN_MOTION    = 15.50602865
ECCENTRICITY   = .00015605
INCLINATION    = 43.0006
RA_OF_ASC_NODE = 96.4663
ARG_OF_PERICENTER = 262.4993
MEAN_ANOMALY   = 191.1042

EPHEMERIS_TYPE = 0
CLASSIFICATION_TYPE = U
NORAD_CAT_ID   = 66431
ELEMENT_SET_NO = 999
REV_AT_EPOCH   = 492
BSTAR          = -.15137121E-2
MEAN_MOTION_DOT = -.88226E-3
MEAN_MOTION_DDOT = 0

CCSDS_OMM_VERS = 2.0
CREATION_DATE  = 
ORIGINATOR     = 

OBJECT_NAME    = STARLINK-35446
OBJECT_ID      = 2025-259L
CENTER_NAME    = EARTH
REF_FRAME      = TEME
TIME_SYSTEM    = UTC
MEAN_ELEMENT_THEORY = SGP/SGP4

EPOCH          = 2025-12-04T08:00:01.999872
MEAN_MOTION    = 15.50706241
ECCENTRICITY   = .00014257
INCLINATION    = 43.0006
RA_OF_ASC_NODE = 96.4607
ARG_OF_PERICENTER = 291.8859
MEAN_ANOMALY   = 163.5404

EPHEMERIS_TYPE = 0
CLASSIFICATION_TYPE = U
NORAD_CAT_ID   = 66432
ELEMENT_SET_NO = 999
REV_AT_EPOCH   = 492
BSTAR          = -.34882928E-2
MEAN_MOTION_DOT = -.200734E-2
MEAN_MOTION_DDOT = 0

CCSDS_OMM_VERS = 2.0
CREATION_DATE  = 
ORIGINATOR     = 

OBJECT_NAME    = STARLINK-35457
OBJECT_ID      = 2025-259M
CENTER_NAME    = EARTH
REF_FRAME      = TEME
TIME_SYSTEM    = UTC
MEAN_ELEMENT_THEORY = SGP/SGP4

EPOCH          = 2025-12-04T08:00:01.999872
MEAN_MOTION    = 15.50590279
ECCENTRICITY   = .0001428
INCLINATION    = 43.0005
RA_OF_ASC_NODE = 96.4571
ARG_OF_PERICENTER = 263.9710
MEAN_ANOMALY   = 193.4685

EPHEMERIS_TYPE = 0
CLASSIFICATION_TYPE = U
NORAD_CAT_ID   = 66433
ELEMENT_SET_NO = 999
REV_AT_EPOCH   = 492
BSTAR          = -.11923485E-2
MEAN_MOTION_DOT = -.69699E-3
MEAN_MOTION_DDOT = 0

CCSDS_OMM_VERS = 2.0
CREATION_DATE  = 
ORIGINATOR     = 

OBJECT_NAME    = STARLINK-35389
OBJECT_ID      = 2025-259N
CENTER_NAME    = EARTH
REF_FRAME      = TEME
TIME_SYSTEM    = UTC
MEAN_ELEMENT_THEORY = SGP/SGP4

EPOCH          = 2025-12-04T08:00:01.999872
MEAN_MOTION    = 15.50580366
ECCENTRICITY   = .00013704
INCLINATION    = 43.0005
RA_OF_ASC_NODE = 96.4522
ARG_OF_PERICENTER = 263.6351
MEAN_ANOMALY   = 195.7336

EPHEMERIS_TYPE = 0
CLASSIFICATION_TYPE = U
NORAD_CAT_ID   = 66434
ELEMENT_SET_NO = 999
REV_AT_EPOCH   = 492
BSTAR          = -.10756709E-2
MEAN_MOTION_DOT = -.62943E-3
MEAN_MOTION_DDOT = 0

CCSDS_OMM_VERS = 2.0
CREATION_DATE  = 
ORIGINATOR     = 

OBJECT_NAME    = STARLINK-35502
OBJECT_ID      = 2025-259P
CENTER_NAME    = EARTH
REF_FRAME      = TEME
TIME_SYSTEM    = UTC
MEAN_ELEMENT_THEORY = SGP/SGP4

EPOCH          = 2025-12-04T08:00:01.999872
MEAN_MOTION    = 15.50583793
ECCENTRICITY   = .00014326
INCLINATION    = 43.0006
RA_OF_ASC_NODE = 96.4486
ARG_OF_PERICENTER = 262.6641
MEAN_ANOMALY   = 198.6118

EPHEMERIS_TYPE = 0
CLASSIFICATION_TYPE = U
NORAD_CAT_ID   = 66435
ELEMENT_SET_NO = 999
REV_AT_EPOCH   = 492
BSTAR          = -.10058742E-2
MEAN_MOTION_DOT = -.58919E-3
MEAN_MOTION_DDOT = 0

